[{"OBJECT_NAME":"STARLINK-34604","OBJECT_ID":"2025-150M","EPOCH":"2025-12-26T16:00:01.999584","MEAN_MOTION":14.98310759,"ECCENTRICITY":0.00027012,"INCLINATION":70.0005,"RA_OF_ASC_NODE":318.578,"ARG_OF_PERICENTER":261.536,"MEAN_ANOMALY":269.5,"EPHEMERIS_TYPE":0,"CLASSIFICATION_TYPE":"U","NORAD_CAT_ID":64801,"ELEMENT_SET_NO":999,"REV_AT_EPOCH":591,"BSTAR":0.0029434094,"MEAN_MOTION_DOT":0.00035186,"MEAN_MOTION_DDOT":0},{"OBJECT_NAME":"STARLINK-34658","OBJECT_ID":"2025-150N","EPOCH":"2025-12-26T14:14:30.022656","MEAN_MOTION":14.97856868,"ECCENTRICITY":0.00024448,"INCLINATION":70.0047,"RA_OF_ASC_NODE":318.9125,"ARG_OF_PERICENTER":248.3862,"MEAN_ANOMALY":111.7036,"EPHEMERIS_TYPE":0,"CLASSIFICATION_TYPE":"U","NORAD_CAT_ID":64802,"ELEMENT_SET_NO":999,"REV_AT_EPOCH":2556,"BSTAR":-0.018201737,"MEAN_MOTION_DOT":-0.00208366,"MEAN_MOTION_DDOT":0},{"OBJECT_NAME":"STARLINK-34620","OBJECT_ID":"2025-150P","EPOCH":"2025-12-26T07:50:05.792352","MEAN_MOTION":14.97394324,"ECCENTRICITY":0.00053488,"INCLINATION":69.9999,"RA_OF_ASC_NODE":319.5836,"ARG_OF_PERICENTER":175.6752,"MEAN_ANOMALY":184.4454,"EPHEMERIS_TYPE":0,"CLASSIFICATION_TYPE":"U","NORAD_CAT_ID":64803,"ELEMENT_SET_NO":999,"REV_AT_EPOCH":2552,"BSTAR":-0.058663792,"MEAN_MOTION_DOT":-0.0064031,"MEAN_MOTION_DDOT":0},{"OBJECT_NAME":"STARLINK-34633","OBJECT_ID":"2025-150Q","EPOCH":"2025-12-26T05:42:28.181952","MEAN_MOTION":14.99143428,"ECCENTRICITY":0.00025555,"INCLINATION":70.0015,"RA_OF_ASC_NODE":319.6755,"ARG_OF_PERICENTER":272.803,"MEAN_ANOMALY":87.2837,"EPHEMERIS_TYPE":0,"CLASSIFICATION_TYPE":"U","NORAD_CAT_ID":64804,"ELEMENT_SET_NO":999,"REV_AT_EPOCH":2551,"BSTAR":0.00036730007,"MEAN_MOTION_DOT":4.385e-5,"MEAN_MOTION_DDOT":0},{"OBJECT_NAME":"STARLINK-34624","OBJECT_ID":"2025-150R","EPOCH":"2025-12-26T14:13:52.997664","MEAN_MOTION":14.99154049,"ECCENTRICITY":0.00027305,"INCLINATION":70.0014,"RA_OF_ASC_NODE":318.9113,"ARG_OF_PERICENTER":276.9891,"MEAN_ANOMALY":83.0958,"EPHEMERIS_TYPE":0,"CLASSIFICATION_TYPE":"U","NORAD_CAT_ID":64805,"ELEMENT_SET_NO":999,"REV_AT_EPOCH":2556,"BSTAR":0.0007286161,"MEAN_MOTION_DOT":8.799e-5,"MEAN_MOTION_DDOT":0},{"OBJECT_NAME":"STARLINK-34664","OBJECT_ID":"2025-150S","EPOCH":"2025-12-26T08:05:13.530624","MEAN_MOTION":14.99145835,"ECCENTRICITY":0.00021742,"INCLINATION":70.0018,"RA_OF_ASC_NODE":319.2236,"ARG_OF_PERICENTER":287.295,"MEAN_ANOMALY":72.7972,"EPHEMERIS_TYPE":0,"CLASSIFICATION_TYPE":"U","NORAD_CAT_ID":64806,"ELEMENT_SET_NO":999,"REV_AT_EPOCH":2553,"BSTAR":0.00073864185,"MEAN_MOTION_DOT":8.919e-5,"MEAN_MOTION_DDOT":0},{"OBJECT_NAME":"STARLINK-34663","OBJECT_ID":"2025-150T","EPOCH":"2025-12-26T05:59:14.722944","MEAN_MOTION":14.9914838,"ECCENTRICITY":0.00026755,"INCLINATION":70.0019,"RA_OF_ASC_NODE":319.7219,"ARG_OF_PERICENTER":270.3599,"MEAN_ANOMALY":89.7254,"EPHEMERIS_TYPE":0,"CLASSIFICATION_TYPE":"U","NORAD_CAT_ID":64807,"ELEMENT_SET_NO":999,"REV_AT_EPOCH":2551,"BSTAR":0.00054002704,"MEAN_MOTION_DOT":6.494e-5,"MEAN_MOTION_DDOT":0},{"OBJECT_NAME":"STARLINK-34696","OBJECT_ID":"2025-150U","EPOCH":"2025-12-26T06:03:36.298080","MEAN_MOTION":14.99148183,"ECCENTRICITY":0.00028607,"INCLINATION":70.0019,"RA_OF_ASC_NODE":319.7298,"ARG_OF_PERICENTER":294.1826,"MEAN_ANOMALY":65.9034,"EPHEMERIS_TYPE":0,"CLASSIFICATION_TYPE":"U","NORAD_CAT_ID":64808,"ELEMENT_SET_NO":999,"REV_AT_EPOCH":2551,"BSTAR":0.00075875196,"MEAN_MOTION_DOT":9.166e-5,"MEAN_MOTION_DDOT":0},{"OBJECT_NAME":"STARLINK-34675","OBJECT_ID":"2025-150V","EPOCH":"2025-12-26T05:40:52.646016","MEAN_MOTION":14.99165799,"ECCENTRICITY":0.00026246,"INCLINATION":70.0008,"RA_OF_ASC_NODE":319.6778,"ARG_OF_PERICENTER":275.4009,"MEAN_ANOMALY":84.6851,"EPHEMERIS_TYPE":0,"CLASSIFICATION_TYPE":"U","NORAD_CAT_ID":64809,"ELEMENT_SET_NO":999,"REV_AT_EPOCH":2551,"BSTAR":0.00071810357,"MEAN_MOTION_DOT":8.673e-5,"MEAN_MOTION_DDOT":0},{"OBJECT_NAME":"STARLINK-34608","OBJECT_ID":"2025-150W","EPOCH":"2025-12-26T14:58:08.991552","MEAN_MOTION":14.99137275,"ECCENTRICITY":0.00028906,"INCLINATION":70.0006,"RA_OF_ASC_NODE":318.6203,"ARG_OF_PERICENTER":273.2941,"MEAN_ANOMALY":86.7888,"EPHEMERIS_TYPE":0,"CLASSIFICATION_TYPE":"U","NORAD_CAT_ID":64810,"ELEMENT_SET_NO":999,"REV_AT_EPOCH":2557,"BSTAR":0.00070561132,"MEAN_MOTION_DOT":8.514e-5,"MEAN_MOTION_DDOT":0},{"OBJECT_NAME":"STARLINK-34669","OBJECT_ID":"2025-150X","EPOCH":"2025-12-26T14:38:17.714400","MEAN_MOTION":14.98335495,"ECCENTRICITY":0.00026732,"INCLINATION":70.0011,"RA_OF_ASC_NODE":318.568,"ARG_OF_PERICENTER":271.4639,"MEAN_ANOMALY":88.6213,"EPHEMERIS_TYPE":0,"CLASSIFICATION_TYPE":"U","NORAD_CAT_ID":64811,"ELEMENT_SET_NO":999,"REV_AT_EPOCH":2557,"BSTAR":0.00029286321,"MEAN_MOTION_DOT":3.404e-5,"MEAN_MOTION_DDOT":0},{"OBJECT_NAME":"STARLINK-34644","OBJECT_ID":"2025-150Y","EPOCH":"2025-12-26T06:01:49.848096","MEAN_MOTION":14.98337279,"ECCENTRICITY":0.00024727,"INCLINATION":70.0027,"RA_OF_ASC_NODE":319.6786,"ARG_OF_PERICENTER":259.8426,"MEAN_ANOMALY":100.2455,"EPHEMERIS_TYPE":0,"CLASSIFICATION_TYPE":"U","NORAD_CAT_ID":64812,"ELEMENT_SET_NO":999,"REV_AT_EPOCH":2551,"BSTAR":0.00040406788,"MEAN_MOTION_DOT":4.732e-5,"MEAN_MOTION_DDOT":0},{"OBJECT_NAME":"STARLINK-34685","OBJECT_ID":"2025-150Z","EPOCH":"2025-12-26T08:01:59.135808","MEAN_MOTION":14.98332622,"ECCENTRICITY":0.00026611,"INCLINATION":70.0023,"RA_OF_ASC_NODE":319.6125,"ARG_OF_PERICENTER":272.3087,"MEAN_ANOMALY":87.7767,"EPHEMERIS_TYPE":0,"CLASSIFICATION_TYPE":"U","NORAD_CAT_ID":64813,"ELEMENT_SET_NO":999,"REV_AT_EPOCH":2552,"BSTAR":-0.00098796476,"MEAN_MOTION_DOT":-0.00011862,"MEAN_MOTION_DDOT":0},{"OBJECT_NAME":"STARLINK-34668","OBJECT_ID":"2025-150AA","EPOCH":"2025-12-26T16:00:01.999584","MEAN_MOTION":14.9831063,"ECCENTRICITY":0.00029551,"INCLINATION":70.0005,"RA_OF_ASC_NODE":318.4719,"ARG_OF_PERICENTER":276.832,"MEAN_ANOMALY":343.4226,"EPHEMERIS_TYPE":0,"CLASSIFICATION_TYPE":"U","NORAD_CAT_ID":64814,"ELEMENT_SET_NO":999,"REV_AT_EPOCH":570,"BSTAR":0.0027174041,"MEAN_MOTION_DOT":0.00032465,"MEAN_MOTION_DDOT":0},{"OBJECT_NAME":"STARLINK-34667","OBJECT_ID":"2025-150AB","EPOCH":"2025-12-26T05:38:13.138656","MEAN_MOTION":14.96479485,"ECCENTRICITY":0.00091997,"INCLINATION":70.0019,"RA_OF_ASC_NODE":319.6643,"ARG_OF_PERICENTER":142.8106,"MEAN_ANOMALY":217.3691,"EPHEMERIS_TYPE":0,"CLASSIFICATION_TYPE":"U","NORAD_CAT_ID":64815,"ELEMENT_SET_NO":999,"REV_AT_EPOCH":2551,"BSTAR":-0.10411255,"MEAN_MOTION_DOT":-0.0109398,"MEAN_MOTION_DDOT":0},{"OBJECT_NAME":"STARLINK-34723","OBJECT_ID":"2025-152A","EPOCH":"2025-12-26T04:33:06.217056","MEAN_MOTION":15.05656081,"ECCENTRICITY":0.00024062,"INCLINATION":97.602,"RA_OF_ASC_NODE":212.9955,"ARG_OF_PERICENTER":83.4724,"MEAN_ANOMALY":276.6776,"EPHEMERIS_TYPE":0,"CLASSIFICATION_TYPE":"U","NORAD_CAT_ID":64842,"ELEMENT_SET_NO":999,"REV_AT_EPOCH":2435,"BSTAR":0.00030458734,"MEAN_MOTION_DOT":4.338e-5,"MEAN_MOTION_DDOT":0}]
