STARLINK-34604          
1 64801U 25150M   25360.66668981  .00035186  00000+0  29434-2 0  9994
2 64801  70.0005 318.5780 0002701 261.5360 269.5000 14.98310759  5912
STARLINK-34658          
1 64802U 25150N   25360.59340304 -.00208366  00000+0 -18202-1 0  9997
2 64802  70.0047 318.9125 0002444 248.3862 111.7036 14.97856868 25565
STARLINK-34620          
1 64803U 25150P   25360.32645593 -.00640310  00000+0 -58664-1 0  9992
2 64803  69.9999 319.5836 0005348 175.6752 184.4454 14.97394324 25522
STARLINK-34633          
1 64804U 25150Q   25360.23782618  .00004385  00000+0  36730-3 0  9999
2 64804  70.0015 319.6755 0002555 272.8030  87.2837 14.99143428 25515
STARLINK-34624          
1 64805U 25150R   25360.59297451  .00008799  00000+0  72862-3 0  9994
2 64805  70.0014 318.9113 0002730 276.9891  83.0958 14.99154049 25564
STARLINK-34664          
1 64806U 25150S   25360.33696216  .00008919  00000+0  73864-3 0  9996
2 64806  70.0018 319.2236 0002174 287.2950  72.7972 14.99145835 25533
STARLINK-34663          
1 64807U 25150T   25360.24947596  .00006494  00000+0  54003-3 0  9997
2 64807  70.0019 319.7219 0002675 270.3599  89.7254 14.99148380 25516
STARLINK-34696          
1 64808U 25150U   25360.25250345  .00009166  00000+0  75875-3 0  9997
2 64808  70.0019 319.7298 0002860 294.1826  65.9034 14.99148183 25510
STARLINK-34675          
1 64809U 25150V   25360.23672044  .00008673  00000+0  71810-3 0  9997
2 64809  70.0008 319.6778 0002624 275.4009  84.6851 14.99165799 25511
STARLINK-34608          
1 64810U 25150W   25360.62371518  .00008514  00000+0  70561-3 0  9990
2 64810  70.0006 318.6203 0002890 273.2941  86.7888 14.99137275 25576
STARLINK-34669          
1 64811U 25150X   25360.60992725  .00003404  00000+0  29286-3 0  9999
2 64811  70.0011 318.5680 0002673 271.4639  88.6213 14.98335495 25570
STARLINK-34644          
1 64812U 25150Y   25360.25127139  .00004732  00000+0  40407-3 0  9993
2 64812  70.0027 319.6786 0002472 259.8426 100.2455 14.98337279 25513
STARLINK-34685          
1 64813U 25150Z   25360.33471222 -.00011862  00000+0 -98796-3 0  9996
2 64813  70.0023 319.6125 0002661 272.3087  87.7767 14.98332622 25523
STARLINK-34668          
1 64814U 25150AA  25360.66668981  .00032465  00000+0  27174-2 0  9994
2 64814  70.0005 318.4719 0002955 276.8320 343.4226 14.98310630  5700
STARLINK-34667          
1 64815U 25150AB  25360.23487429 -.01093980  00000+0 -10411+0 0  9999
2 64815  70.0019 319.6643 0009199 142.8106 217.3691 14.96479485 25514
STARLINK-34723          
1 64842U 25152A   25360.18965529  .00004338  00000+0  30459-3 0  9991
2 64842  97.6020 212.9955 0002406  83.4724 276.6776 15.05656081 24355
